NORAD_CAT_ID,OBJECT_NAME,OBJECT_TYPE,EPOCH,MEAN_MOTION,ECCENTRICITY,INCLINATION,RA_OF_ASC_NODE,ARG_OF_PERICENTER,MEAN_ANOMALY,BSTAR,MEAN_MOTION_DOT,MEAN_MOTION_DDOT,TLE_LINE0,TLE_LINE1,TLE_LINE2,SEMIMAJOR_AXIS,PERIOD,APOGEE,PERIGEE,DECAYED
51739.0,STARLINK-3516,PAYLOAD,2022-04-29 22:00:00,15.35680548,0.000184,53.2174,169.5849,37.8651,136.024,-0.022003,-0.00715526,0.0,0 STARLINK-3516,1 51739U 22016AB  22119.91667824 -.00715526  00000-0 -22003-1 0  9990,2 51739  53.2174 169.5849 0001840  37.8651 136.0240 15.35680548  3660,6837.0369999999975,93.77,460.16,457.644,0.0
51739.0,STARLINK-3516,PAYLOAD,2022-04-30 12:00:00,15.34788942,0.0002065,53.2174,166.8562,32.3204,127.3565,-0.0227,-0.00717227,0.0,0 STARLINK-3516,1 51739U 22016AB  22120.50001157 -.00717227  00000-0 -22700-1 0  9992,2 51739  53.2174 166.8562 0002065  32.3204 127.3565 15.34788942 11923,6839.684,93.824,462.962,460.137,0.0
51739.0,STARLINK-3516,PAYLOAD,2022-04-30 14:00:01,15.34658662,0.0001946,53.2174,166.4664,34.5901,225.7614,-0.022618,-0.00712056,0.0,0 STARLINK-3516,1 51739U 22016AB  22120.58334491 -.00712056  00000-0 -22618-1 0  9993,2 51739  53.2174 166.4664 0001946  34.5901 225.7614 15.34658662  3651,6840.071999999999,93.832,463.268,460.605,0.0
51739.0,STARLINK-3516,PAYLOAD,2022-04-30 22:00:00,15.34143015,0.0001641,53.2169,164.9073,38.9799,263.6868,-0.022717,-0.00704067,0.0,0 STARLINK-3516,1 51739U 22016AB  22120.91667824 -.00704067  00000-0 -22717-1 0  9992,2 51739  53.2169 164.9073 0001641  38.9799 263.6868 15.34143015  3649,6841.604,93.863,464.592,462.346,0.0
51739.0,STARLINK-3516,PAYLOAD,2022-05-01 14:00:01,15.33130434,0.0001629999999999,53.2173,161.7952,37.1277,348.3216,-0.023845,-0.00714724,0.0,0 STARLINK-3516,1 51739U 22016AB  22121.58334491 -.00714724  00000-0 -23845-1 0  9991,2 51739  53.2173 161.7952 0001630  37.1277 348.3216 15.33130434 12081,6844.616,93.925,467.597,465.366,0.0
51739.0,STARLINK-3516,PAYLOAD,2022-05-01 22:00:01,15.32620403,0.0001720999999999,53.2175,160.2385,33.7013,32.2872,-0.024256,-0.00715356,0.0,0 STARLINK-3516,1 51739U 22016AB  22121.91668981 -.00715356  00000-0 -24256-1 0  9991,2 51739  53.2175 160.2385 0001721  33.7013  32.2872 15.32620403  3680,6846.135,93.957,469.17800000000005,466.821,0.0
51739.0,STARLINK-3516,PAYLOAD,2022-05-02 14:00:01,15.31599234,0.0001916,53.2172,157.1347,34.971,110.0621,-0.024947,-0.00712678,0.0,0 STARLINK-3516,1 51739U 22016AB  22122.58334491 -.00712678  00000-0 -24947-1 0  9992,2 51739  53.2172 157.1347 0001916  34.9710 110.0621 15.31599234 12248,6849.177,94.019,472.355,469.73,0.0
51739.0,STARLINK-3516,PAYLOAD,2022-05-02 22:00:01,15.3107725,0.0001888,53.2166,155.5829,29.1747,154.5637,-0.024712,-0.00695833,0.0,0 STARLINK-3516,1 51739U 22016AB  22122.91668981 -.00695833  00000-0 -24712-1 0  9996,2 51739  53.2166 155.5829 0001888  29.1747 154.5637 15.31077250  3634,6850.734,94.051,473.892,471.306,0.0
51739.0,STARLINK-3516,PAYLOAD,2022-05-03 14:00:01,15.30071178,0.0001908,53.2172,152.4849,35.8598,223.2408,-0.02627,-0.00715248,0.0,0 STARLINK-3516,1 51739U 22016AB  22123.58334491 -.00715248  00000-0 -26270-1 0  9990,2 51739  53.2172 152.4849 0001908  35.8598 223.2408 15.30071178 12395,6853.736999999999,94.113,476.909,474.294,0.0
51739.0,STARLINK-3516,PAYLOAD,2022-05-03 22:00:00,15.29559626,0.0001587,53.2174,150.9356,44.8,251.0996,-0.026602,-0.00713003,0.0,0 STARLINK-3516,1 51739U 22016AB  22123.91667824 -.00713003  00000-0 -26602-1 0  9992,2 51739  53.2174 150.9356 0001587  44.8000 251.0996 15.29559626  3662,6855.265,94.145,478.218,476.042,0.0
51739.0,STARLINK-3516,PAYLOAD,2022-05-04 14:00:01,15.28454981,0.0001740999999999,53.2159,147.8477,35.8114,331.8936,-0.023278,-0.00610138,0.0,0 STARLINK-3516,1 51739U 22016AB  22124.58334491 -.00610138  00000-0 -23278-1 0  9998,2 51739  53.2159 147.8477 0001741  35.8114 331.8936 15.28454981 12547,6858.566999999999,94.213,481.626,479.23800000000006,0.0
51739.0,STARLINK-3516,PAYLOAD,2022-05-04 22:00:01,15.28030004,0.0001776999999999,53.2173,146.3003,32.5776,10.1005,-0.027927,-0.00722188,0.0,0 STARLINK-3516,1 51739U 22016AB  22124.91668981 -.00722188  00000-0 -27927-1 0  9993,2 51739  53.2173 146.3003 0001777  32.5776  10.1005 15.28030004  3684,6859.839,94.239,482.923,480.485,0.0
51739.0,STARLINK-3516,PAYLOAD,2022-05-05 06:00:00,15.27455622,0.0001604,53.2164,144.7603,48.0227,28.9687,-0.024684,-0.00626274,0.0,0 STARLINK-3516,1 51739U 22016AB  22125.25001157 -.00626274  00000-0 -24684-1 0  9993,2 51739  53.2164 144.7603 0001604  48.0227  28.9687 15.27455622 12650,6861.559,94.274,484.524,482.323,0.0
51739.0,STARLINK-3516,PAYLOAD,2022-05-05 14:00:01,15.27011136,0.0001618,53.2171,143.218,43.7793,66.9126,-0.028845,-0.0072295,0.0,0 STARLINK-3516,1 51739U 22016AB  22125.58334491 -.00722950  00000-0 -28845-1 0  9990,2 51739  53.2171 143.2180 0001618  43.7793  66.9126 15.27011136  3688,6862.89,94.302,485.865,483.645,0.0
51739.0,STARLINK-3516,PAYLOAD,2022-05-05 16:00:00,15.26859796,0.0001753,53.2163,142.8332,39.7918,169.248,-0.027502,-0.00680913,0.0,0 STARLINK-3516,1 51739U 22016AB  22125.66667824 -.00680913  00000-0 -27502-1 0  9999,2 51739  53.2163 142.8332 0001753  39.7918 169.2480 15.26859796 12712,6863.343000000003,94.311,486.412,484.005,0.0
51739.0,STARLINK-3516,PAYLOAD,2022-05-05 22:00:00,15.26401837,0.0001829,53.2162,141.6777,33.3414,110.5208,-0.023436,-0.00578966,0.0,0 STARLINK-3516,1 51739U 22016AB  22125.91667824 -.00578966  00000-0 -23436-1 0  9993,2 51739  53.2162 141.6777 0001829  33.3414 110.5208 15.26401837  3633,6864.715999999999,94.34,487.837,485.326,0.0
51739.0,STARLINK-3516,PAYLOAD,2022-05-06 08:00:01,15.2586264,0.0001609,53.2171,139.7547,51.1013,223.2497,-0.029818,-0.0072177,0.0,0 STARLINK-3516,1 51739U 22016AB  22126.33334491 -.00721770  00000-0 -29818-1 0  9994,2 51739  53.2171 139.7547 0001609  51.1013 223.2497 15.25862640 12819,6866.333000000001,94.373,489.30300000000005,487.094,0.0
51739.0,STARLINK-3516,PAYLOAD,2022-05-06 14:00:01,15.25482438,0.0001683,53.2171,138.6007,48.0533,160.1612,-0.030332,-0.00725552,0.0,0 STARLINK-3516,1 51739U 22016AB  22126.58334491 -.00725552  00000-0 -30332-1 0  9996,2 51739  53.2171 138.6007 0001683  48.0533 160.1612 15.25482438  3677,6867.474,94.396,490.495,488.1830000000001,0.0
51739.0,STARLINK-3516,PAYLOAD,2022-05-07 06:00:02,15.24460211,0.0001961,53.2174,135.5284,36.1787,234.0516,-0.031107,-0.00721814,0.0,0 STARLINK-3516,1 51739U 22016AB  22127.25002315 -.00721814  00000-0 -31107-1 0  9996,2 51739  53.2174 135.5284 0001961  36.1787 234.0516 15.24460211 12950,6870.544,94.46,493.756,491.061,0.0
51739.0,STARLINK-3516,PAYLOAD,2022-05-07 14:00:01,15.23953878,0.0001545,53.2172,133.9941,49.8123,250.4096,-0.031872,-0.00727924,0.0,0 STARLINK-3516,1 51739U 22016AB  22127.58334491 -.00727924  00000-0 -31872-1 0  9992,2 51739  53.2172 133.9941 0001545  49.8123 250.4096 15.23953878  3661,6872.066,94.491,494.992,492.869,0.0
51739.0,STARLINK-3516,PAYLOAD,2022-05-07 22:00:00,15.23439614,0.0001579,53.2173,132.4595,44.6694,284.9988,-0.032034,-0.00720953,0.0,0 STARLINK-3516,1 51739U 22016AB  22127.91667824 -.00720953  00000-0 -32034-1 0  9994,2 51739  53.2173 132.4595 0001579  44.6694 284.9988 15.23439614  3652,6873.611999999999,94.523,496.562,494.392,0.0
51739.0,STARLINK-3516,PAYLOAD,2022-05-08 06:00:00,15.22931897,0.0001862,53.2174,130.9293,34.3227,324.1745,-0.032683,-0.00724303,0.0,0 STARLINK-3516,1 51739U 22016AB  22128.25001157 -.00724303  00000-0 -32683-1 0  9996,2 51739  53.2174 130.9293 0001862  34.3227 324.1745 15.22931897 13102,6875.14,94.554,498.285,495.724,0.0
51739.0,STARLINK-3516,PAYLOAD,2022-05-08 14:00:01,15.22422858,0.0001624,53.2172,129.3984,40.0922,346.6227,-0.033255,-0.00725773,0.0,0 STARLINK-3516,1 51739U 22016AB  22128.58334491 -.00725773  00000-0 -33255-1 0  9990,2 51739  53.2172 129.3984 0001624  40.0922 346.6227 15.22422858  3645,6876.672,94.586,499.654,497.42,0.0
51739.0,STARLINK-3516,PAYLOAD,2022-05-08 22:00:00,15.21910063,0.0001629,53.2173,127.8674,40.6426,13.6798,-0.033555,-0.00721571,0.0,0 STARLINK-3516,1 51739U 22016AB  22128.91667824 -.00721571  00000-0 -33555-1 0  9991,2 51739  53.2173 127.8674 0001629  40.6426  13.6798 15.21910063  3660,6878.217,94.618,501.202,498.961,0.0
51739.0,STARLINK-3516,PAYLOAD,2022-05-09 14:00:01,15.20891339,0.0001728,53.2172,124.8134,41.249,66.5076,-0.034645,-0.00722865,0.0,0 STARLINK-3516,1 51739U 22016AB  22129.58335648 -.00722865  00000-0 -34645-1 0  9999,2 51739  53.2172 124.8134 0001728  41.2490  66.5076 15.20891339 13317,6881.288000000001,94.681,504.342,501.964,0.0
51739.0,STARLINK-3516,PAYLOAD,2022-05-09 22:00:00,15.20381946,0.0001856,53.2174,123.2862,38.6481,94.8127,-0.035247,-0.00724405,0.0,0 STARLINK-3516,1 51739U 22016AB  22129.91667824 -.00724405  00000-0 -35247-1 0  9991,2 51739  53.2174 123.2862 0001856  38.6481  94.8127 15.20381946  3657,6882.825,94.713,505.967,503.412,0.0
51739.0,STARLINK-3516,PAYLOAD,2022-05-10 14:00:01,15.19361522,0.0001847,53.2173,120.2392,42.4618,140.6939,-0.036245,-0.007231,0.0,0 STARLINK-3516,1 51739U 22016AB  22130.58334491 -.00723100  00000-0 -36245-1 0  9997,2 51739  53.2173 120.2392 0001847  42.4618 140.6939 15.19361522 13463,6885.906,94.777,509.043,506.499,0.0
51739.0,STARLINK-3516,PAYLOAD,2022-05-10 18:00:00,15.19106743,0.0001615,53.2174,119.477,40.6712,334.5259,-0.036543,-0.00723588,0.0,0 STARLINK-3516,1 51739U 22016AB  22130.75001157 -.00723588  00000-0 -36543-1 0  9997,2 51739  53.2174 119.4770 0001615  40.6712 334.5259 15.19106743  3631,6886.676,94.793,509.653,507.429,0.0
51739.0,STARLINK-3516,PAYLOAD,2022-05-11 22:00:00,15.17320999,0.0001712,53.2174,114.1557,45.3331,229.8611,-0.038386,-0.00721883,0.0,0 STARLINK-3516,1 51739U 22016AB  22131.91667824 -.00721883  00000-0 -38386-1 0  9998,2 51739  53.2174 114.1557 0001712  45.3331 229.8611 15.17320999 13664,6892.078,94.904,515.123,512.763,0.0
